[{"OBJECT_NAME":"STARLINK-2285","OBJECT_ID":"2021-024AU","EPOCH":"2026-03-09T21:28:20.577504","MEAN_MOTION":15.30182651,"ECCENTRICITY":9.243e-5,"INCLINATION":53.1579,"RA_OF_ASC_NODE":305.9113,"ARG_OF_PERICENTER":99.8107,"MEAN_ANOMALY":260.2998,"EPHEMERIS_TYPE":0,"CLASSIFICATION_TYPE":"U","NORAD_CAT_ID":48019,"ELEMENT_SET_NO":999,"REV_AT_EPOCH":27495,"BSTAR":-7.2180295e-5,"MEAN_MOTION_DOT":-2.495e-5,"MEAN_MOTION_DDOT":0},{"OBJECT_NAME":"NEXSAT-1","OBJECT_ID":"2024-024E","EPOCH":"2026-03-09T22:47:24.778176","MEAN_MOTION":15.32166372,"ECCENTRICITY":0.00099795,"INCLINATION":97.3124,"RA_OF_ASC_NODE":144.1918,"ARG_OF_PERICENTER":108.5709,"MEAN_ANOMALY":251.6617,"EPHEMERIS_TYPE":0,"CLASSIFICATION_TYPE":"U","NORAD_CAT_ID":58921,"ELEMENT_SET_NO":999,"REV_AT_EPOCH":11669,"BSTAR":0.00031433612,"MEAN_MOTION_DOT":9.702e-5,"MEAN_MOTION_DDOT":0}]
